#dP2020 11 15  0  0  0.00000000      96 __u+U ITR00 FIT  IAC
## 2132      0.00000000   900.00000000 59168 0.0000000000000
+  115   C06C07C08C09C10C11C12C13C14C16C19C20C21C22C23C24C25
+        C26C27C28C29C30C32C33C34C35C36C37C38C39C40C43C44C45
+        C46E01E02E03E04E05E07E08E09E11E12E13E14E15E18E19E21
+        E24E25E26E27E30E31E33E36G01G02G03G04G05G06G07G08G09
+        G10G11G12G13G15G16G17G18G19G20G21G22G23G24G25G26G27
+        G28G29G30G31G32J01J02J03R01R02R03R04R05R07R08R09R11
+        R12R13R14R15R16R17R18R19R20R21R22R23R24  0  0  0  0
++         8  9  8  8  8  7  7  9  7  7  6  6  5  5  7  7  7
++         5  7  6  6  6  6  8  7  6  7  7  9  8  9 10  9 11
++         8  7  7  7  7  7  7  7  7  7  7  6  6  7  6  6  7
++         6  8  6  6  7  7  6  7  7  7  5  5  6  7  6  5  7
++         5  5  7  6  6  7  6  7  6  7  5  7  5  6  6  6  6
++         6  5  6  7  7  7  7  9  6  6  8  6  6  6  7  6  7
++         6  7  6  6  7  9  5  8  6  6  8 11 10  0  0  0  0
%c M  cc GPS ccc cccc cccc cccc cccc ccccc ccccc ccccc ccccc
%c cc cc ccc ccc cccc cccc cccc cccc ccccc ccccc ccccc ccccc
%f  0.0000000  0.000000000  0.00000000000  0.000000000000000
%f  0.0000000  0.000000000  0.00000000000  0.000000000000000
%i    0    0    0    0      0      0      0      0         0
%i    0    0    0    0      0      0      0      0         0
/* INFORMATION & ANALYSIS CENTER (IAC)      ULTRA-RAPID DATA
/* S/V CLOCKS ARE ALIGNED TO GNSS TIME                      
/* G:C1WC2W R:C1PC2P E:C1XC5X C:C2IC6I J:C1CC2S             
/* PCV:IGS14_2131 OL/AL:FES2004  NONE     YN ORB:CoN CLK:CoN
*  2020 11 15 12  0  0.00000000
PC06 -22026.168277  35397.011145   4770.563061    143.064852
PC07  -8621.730038  30952.555185  27788.532261    -41.350913
PC08 -18458.751036  18052.215162 -33344.231987   -700.009026
PC09 -10855.874166  35639.875801  19605.468849    936.405069
PC10   4180.705915  38054.204552  18362.151729   -141.670871
PC11   4320.589361 -20392.380544  18591.268426   -753.412373
PC12  18798.414016 -20353.735435   3216.478846    611.071972
PC13  -2840.387904  22591.422429 -35406.670976    744.734906
PC14  -4013.430384 -27335.338808   3740.990692    251.348779
PC16 -20409.828963  36165.631256   6724.581722   -610.795274
PC19  10251.442319  25354.856150   5593.579133    619.126458
PC20  -1831.903816  25450.895281 -11321.044892   -891.278684
PC21  13393.624485 -10277.034650  22223.867522   -723.635590
PC22  16684.033709  10599.090458  19700.740508   -792.260629
PC23 -26591.902739  -8463.571017   -471.897841   -913.431388
PC24   5768.417703 -15160.589030 -22708.112723   -721.922156
PC25 -15794.775265 -16337.342234 -16215.161499   -827.733318
PC26  22036.810575  -5758.265279 -16102.246505    905.574358
PC27 -22671.641728  15066.955047   6100.011749    433.209071
PC28 -19436.637010   -926.830297  20012.681198   -145.660743
PC29   5448.149382  16132.624807 -22112.426022    311.573009
PC30 -12119.245234  22623.596142 -10937.687896    404.160701
PC32 -13331.105742  10367.528779 -22211.626757   -887.982660
PC33 -10327.879128 -25330.239820  -5489.764978   -838.044895
PC34  11695.260740 -22620.428085  11432.030943   -808.359142
PC35  19377.337516    519.848499 -20084.222473   -558.766827
PC36  15101.112897  16767.591199  16443.965011   -836.498360
PC37 -22695.025973   4711.072767  15577.991594   -876.319050
PC38 -13072.235963  21927.858322 -33555.931032 999999.999999
PC39 -15243.844161  37882.910822  10210.828238     25.192634
PC40   -734.004216  35406.989276  23019.701448    101.254153
PC43  -5047.197604 -16513.573585  21923.789753 999999.999999
PC44  22252.385852 -15651.698183  -6281.315536   -115.220969
PC45  26602.526254   8372.373230    458.210325    283.132161
PC46  -4951.827125  15301.236960  22817.717141    543.952481
PE01  24315.929696  14149.501645  -9182.836543   -983.207302
PE02 -24341.388148 -14067.878878   9297.077342    176.587193
PE03 -15767.775442  -7356.989426 -23954.497561   -365.286893
PE04  17237.275650 -14476.265534  19217.554842   -648.304225
PE05  -5017.632992 -25201.463344 -14697.970373   -329.234572
PE07  -8570.199780  28172.663836  -3062.391735   -462.180061
PE08 -16992.388518  14885.706909 -19140.759104   6091.345072
PE09   8299.746494 -28251.582939   2938.246074   5864.488186
PE11  13502.389291 -17745.974019  19466.159453   6823.244546
PE12  27548.192786 -10554.055762   2474.168692   5505.076557
PE13 -13791.305238  17704.271268 -19296.720341    406.471364
PE14   2544.096551  26040.215254 -18262.037039  -1226.293656
PE15 -27479.083336  10706.925929  -2573.716072    843.654298
PE18   4112.599544 -22178.510590   9325.708389  -1339.645415
PE19  14793.952686   9842.530577  23668.200607    128.968843
PE21  16021.220854  23134.041787   9180.439293   -632.083499
PE24   2469.310611 -18698.823052 -22823.546639   -584.398892
PE25 -15922.400301 -23154.117253  -9302.685961   -520.284391
PE26   8619.380614  14229.922210 -24474.272225   2493.405072
PE27  -1883.314629  18939.552221  22677.389941     92.281259
PE30 -19015.580494   2989.783863  22490.403334   3422.107374
PE31  18555.170298  -3647.898317 -22756.496982   -475.716830
PE33  24996.937672   2569.678038 -15631.746578   -463.392256
PE36  -7995.196074 -14290.870365  24665.931966    480.665412
PG01   8591.922378  13727.171258 -21355.707885    807.252669
PG02  14155.858762 -14560.715433  17759.644390   -542.801965
PG03  12569.410893  23170.729802  -3746.073930     -4.469759
PG04   2933.560272  20102.123189  17088.720512   -155.531368
PG05   3507.838083 -18029.303243  18966.762464    -25.946544
PG06  25195.874207  -5904.429231   6126.560587     -1.098655
PG07  23033.901737   7115.306332  12002.147797   -414.763557
PG08  -4032.891304  24283.429024  -9597.145574    -55.184935
PG09  12394.283484   9480.714912  21426.789746   -289.820504
PG10 -18378.721199  -3978.930107 -18768.481211   -505.167930
PG11  -1072.924739  18428.128648 -19668.034774   -108.062481
PG12  -9079.531897 -24283.991856  -6363.633606     40.044311
PG13  12912.511676 -22999.066391  -2668.404138     65.125988
PG15    350.388368 -24365.397664 -10464.322017   -189.862161
PG16  -4725.957942  17724.518617  18810.077765   -236.780611
PG17  17991.808498  -9287.552270 -16738.165740    354.196602
PG18 -23777.106290  -5959.585707  10288.511704    321.599498
PG19  18715.785720 -14317.511331 -12460.501257    -78.025054
PG20 -21250.834718 -13167.360002  -9418.709935    526.010073
PG21  -1704.677267  15204.133754 -20955.483967     68.441770
PG22   7961.600236  22735.678244 -11161.551718   -729.637827
PG23 -19701.874566 -13347.970645 -11853.217437    100.501559
PG24  -4936.200048 -15244.593964 -21430.452503      6.404032
PG25 -17443.128662 -19527.614594   5007.774405     22.550173
PG26 -13458.935764   7911.598727  21461.686408    312.094539
PG27 -12371.906360  23231.251141   1473.120626    -14.093546
PG28  17022.996338   3645.583358 -19427.992901    655.242365
PG29  -9621.934457 -12012.127480  21603.804786   -236.905576
PG30  26544.272197    800.995248   2611.683921   -335.951579
PG31 -24595.741072   6833.711295   8095.140507    -81.582307
PG32 -17849.279404   9539.749954 -17029.284216      0.631333
PJ01 -20683.484657  27430.429544 -19891.686690   -336.336070
PJ02 -25559.351306  21836.059559  30392.900222     -0.075653
PJ03 -34193.053434  24680.814975   6009.270514     -3.117948
PR01   6963.879531 -17714.729868  16968.071462     70.625370
PR02  -2521.457035 -25248.884667  -2884.327675    454.484384
PR03  -9406.777208 -15349.416840 -18063.938692     25.608389
PR04 -10642.063877   3144.285626 -22949.328004     61.630818
PR05  -6058.670616  19783.678151 -14898.852786     61.148297
PR07   9578.887880  14684.225380  18534.629490    -41.345752
PR08  10785.059754  -3177.744869  22942.155966    -55.715036
PR09   9606.735134  14885.485446  18401.091853      7.862330
PR11  21014.237849   2816.856563 -14197.577512    -44.772048
PR12   8349.531944  -7880.049109 -22745.623985    180.344002
PR13  -9395.965042 -14573.554927 -18720.739560    -46.678902
PR14 -21805.823922 -12807.584074  -3280.177599     57.737511
PR15 -21290.607305  -3573.954165  13614.092525    106.721219
PR16  -7623.261163   8582.989202  22770.761708     -8.248340
PR17 -12580.377435  -3759.228866  21891.213293    374.194867
PR18 -21659.512892   7992.941531  10815.738110     56.276232
PR19 -19991.314094  14876.751974  -5477.840160   -119.796452
PR20  -4853.280255  13745.035154 -20912.217473   -426.634176
PR21  13325.493220   3011.878803 -21528.353560   -166.318930
PR22  21986.028000  -8690.570134  -9699.800258    -81.998751
PR23  15215.054272 -16185.422263  12527.349912    345.017464
PR24   3773.374764 -13912.253711  21058.900544     20.614644
EOF
